ACS3                    
1 59588U 24077B   24223.16364757  .00000068  00000+0  11391-3 0  9998
2 59588  97.4027 278.7996 0019010 309.2987  50.6478 13.67696045 14780
